[
    {
        "Altitude(m)": 607895.7871347324,
        "Argument of Periapsis(deg)": 0.0,
        "Eccentricity": 0.0,
        "Inclination(deg)": 60.0,
        "Latitude(deg)": 40.998257655422506,
        "Longitude(deg)": -49.91140101899975,
        "Mean Anomaly(deg)": -229.09089999999998,
        "RAAN(deg)": 260.0,
        "Satellite Name": "Test1 1152",
        "Satellite Number": 1152,
        "Semi-Major Axis(m)": 6980739.136638005,
        "Time(s)": 0
    },
    {
        "Altitude(m)": 607795.1002259094,
        "Argument of Periapsis(deg)": 0.00010418945913296404,
        "Eccentricity": 0.0,
        "Inclination(deg)": 60.0,
        "Latitude(deg)": 40.53058237723161,
        "Longitude(deg)": -49.41480702233096,
        "Mean Anomaly(deg)": -228.4707938545382,
        "RAAN(deg)": 259.99957995086027,
        "Satellite Name": "Test1 1152",
        "Satellite Number": 1152,
        "Semi-Major Axis(m)": 6980739.136638005,
        "Time(s)": 10
    }
]